HST                     
1 20580U 90037B   24270.65699867  .00011726  00000+0  52507-3 0  9993
2 20580  28.4700  24.4116 0003229  74.8398 285.2552 15.19671868692470
